start=new Date('2022-11-19T00:00:00.000Z').valueOf();
sats=[{"MEAN_ANOMALY":"298.1119","PERIAPSIS":"545.999","REF_FRAME":"TEME","OBJECT_ID":"2019-074A","ARG_OF_PERICENTER":"62.0048","INCLINATION":"53.0565","TIME_SYSTEM":"UTC","TLE_LINE2":"2 44713  53.0565 205.1210 0001765  62.0048 298.1119 15.06397556166826","MEAN_MOTION_DOT":"0.00002174","EPHEMERIS_TYPE":"0","BSTAR":"0.00016484000000","RCS_SIZE":"LARGE","APOAPSIS":"548.443","SITE":"AFETR","FILE":"3662753","CLASSIFICATION_TYPE":"U","ELEMENT_SET_NO":"999","PERIOD":"95.592","LAUNCH_DATE":"2019-11-11","MEAN_ELEMENT_THEORY":"SGP4","COUNTRY_CODE":"US","TLE_LINE1":"1 44713U 19074A   22322.67683362  .00002174  00000-0  16484-3 0  9992","CENTER_NAME":"EARTH","RA_OF_ASC_NODE":"205.1210","REV_AT_EPOCH":"16682","NORAD_CAT_ID":"44713","SEMIMAJOR_AXIS":"6925.356","OBJECT_NAME":"STARLINK-1007","ECCENTRICITY":"0.00017650","EPOCH":"2022-11-18T16:14:38.424768","OBJECT_TYPE":"PAYLOAD","GP_ID":"218164391","MEAN_MOTION":"15.06397556","DECAY_DATE":null,"MEAN_MOTION_DDOT":"0.0000000000000"},{"SITE":"AFETR","APOAPSIS":"548.349","PERIOD":"95.592","ELEMENT_SET_NO":"999","CLASSIFICATION_TYPE":"U","FILE":"3662593","EPHEMERIS_TYPE":"0","MEAN_MOTION_DOT":"0.00001963","BSTAR":"0.00015067000000","RCS_SIZE":"LARGE","ARG_OF_PERICENTER":"75.7412","TLE_LINE2":"2 44714  53.0544 207.8871 0001620  75.7412 284.3757 15.06395654166903","TIME_SYSTEM":"UTC","INCLINATION":"53.0544","REF_FRAME":"TEME","PERIAPSIS":"546.105","MEAN_ANOMALY":"284.3757","OBJECT_ID":"2019-074B","MEAN_MOTION_DDOT":"0.0000000000000","GP_ID":"218141372","OBJECT_TYPE":"PAYLOAD","EPOCH":"2022-11-18T01:24:18.438336","DECAY_DATE":null,"MEAN_MOTION":"15.06395654","RA_OF_ASC_NODE":"207.8871","REV_AT_EPOCH":"16690","CENTER_NAME":"EARTH","OBJECT_NAME":"STARLINK-1008","SEMIMAJOR_AXIS":"6925.362","NORAD_CAT_ID":"44714","ECCENTRICITY":"0.00016200","LAUNCH_DATE":"2019-11-11","TLE_LINE1":"1 44714U 19074B   22322.05854674  .00001963  00000-0  15067-3 0  9992","COUNTRY_CODE":"US","MEAN_ELEMENT_THEORY":"SGP4"},{"NORAD_CAT_ID":"44715","SEMIMAJOR_AXIS":"6925.354","OBJECT_NAME":"STARLINK-1009","ECCENTRICITY":"0.00013610","CENTER_NAME":"EARTH","RA_OF_ASC_NODE":"204.6717","REV_AT_EPOCH":"16683","MEAN_ELEMENT_THEORY":"SGP4","TLE_LINE1":"1 44715U 19074C   22322.77729729  .00001187  00000-0  98597-4 0  9992","COUNTRY_CODE":"US","LAUNCH_DATE":"2019-11-11","MEAN_MOTION_DDOT":"0.0000000000000","MEAN_MOTION":"15.06398153","DECAY_DATE":null,"OBJECT_TYPE":"PAYLOAD","GP_ID":"218163400","EPOCH":"2022-11-18T18:39:18.485856","TIME_SYSTEM":"UTC","INCLINATION":"53.0546","TLE_LINE2":"2 44715  53.0546 204.6717 0001361  81.6038 278.5106 15.06398153166834","ARG_OF_PERICENTER":"81.6038","OBJECT_ID":"2019-074C","PERIAPSIS":"546.277","MEAN_ANOMALY":"278.5106","REF_FRAME":"TEME","FILE":"3662753","PERIOD":"95.592","ELEMENT_SET_NO":"999","CLASSIFICATION_TYPE":"U","APOAPSIS":"548.162","SITE":"AFETR","BSTAR":"0.00009859700000","RCS_SIZE":"LARGE","EPHEMERIS_TYPE":"0","MEAN_MOTION_DOT":"0.00001187"},{"FILE":"3662515","CLASSIFICATION_TYPE":"U","ELEMENT_SET_NO":"999","PERIOD":"95.593","APOAPSIS":"548.420","SITE":"AFETR","RCS_SIZE":"LARGE","BSTAR":"-0.00008083200000","MEAN_MOTION_DOT":"-0.00001485","EPHEMERIS_TYPE":"0","INCLINATION":"53.0529","TIME_SYSTEM":"UTC","TLE_LINE2":"2 44716  53.0529 206.3708 0001696  59.7909 300.3247 15.06389472166765","ARG_OF_PERICENTER":"59.7909","OBJECT_ID":"2019-074D","MEAN_ANOMALY":"300.3247","PERIAPSIS":"546.071","REF_FRAME":"TEME","MEAN_MOTION_DDOT":"0.0000000000000","MEAN_MOTION":"15.06389472","DECAY_DATE":null,"EPOCH":"2022-11-18T09:32:37.079232","GP_ID":"218133711","OBJECT_TYPE":"PAYLOAD","SEMIMAJOR_AXIS":"6925.381","NORAD_CAT_ID":"44716","ECCENTRICITY":"0.00016960","OBJECT_NAME":"STARLINK-1010","CENTER_NAME":"EARTH","REV_AT_EPOCH":"16676","RA_OF_ASC_NODE":"206.3708","MEAN_ELEMENT_THEORY":"SGP4","COUNTRY_CODE":"US","TLE_LINE1":"1 44716U 19074D   22322.39765138 -.00001485  00000-0 -80832-4 0  9991","LAUNCH_DATE":"2019-11-11"},{"MEAN_MOTION":"15.06395201","DECAY_DATE":null,"EPOCH":"2022-11-18T11:05:30.181632","GP_ID":"218133461","OBJECT_TYPE":"PAYLOAD","MEAN_MOTION_DDOT":"0.0000000000000","MEAN_ELEMENT_THEORY":"SGP4","COUNTRY_CODE":"US","TLE_LINE1":"1 44717U 19074E   22322.46215488  .00000883  00000-0  78176-4 0  9995","LAUNCH_DATE":"2019-11-11","NORAD_CAT_ID":"44717","SEMIMAJOR_AXIS":"6925.363","ECCENTRICITY":"0.00021750","OBJECT_NAME":"STARLINK-1011","CENTER_NAME":"EARTH","RA_OF_ASC_NODE":"226.0758","REV_AT_EPOCH":"16651","BSTAR":"0.00007817600000","RCS_SIZE":"LARGE","MEAN_MOTION_DOT":"0.00000883","EPHEMERIS_TYPE":"0","FILE":"3662515","CLASSIFICATION_TYPE":"U","ELEMENT_SET_NO":"999","PERIOD":"95.592","APOAPSIS":"548.735","SITE":"AFETR","OBJECT_ID":"2019-074E","MEAN_ANOMALY":"310.0860","PERIAPSIS":"545.722","REF_FRAME":"TEME","INCLINATION":"53.0559","TIME_SYSTEM":"UTC","TLE_LINE2":"2 44717  53.0559 226.0758 0002175  50.0320 310.0860 15.06395201166516","ARG_OF_PERICENTER":"50.0320"},{"ARG_OF_PERICENTER":"62.4252","TIME_SYSTEM":"UTC","INCLINATION":"53.0541","TLE_LINE2":"2 44718  53.0541 207.6973 0001756  62.4252 297.6915 15.06401379166736","PERIAPSIS":"545.993","MEAN_ANOMALY":"297.6915","REF_FRAME":"TEME","OBJECT_ID":"2019-074F","APOAPSIS":"548.425","SITE":"AFETR","FILE":"3662515","PERIOD":"95.592","CLASSIFICATION_TYPE":"U","ELEMENT_SET_NO":"999","EPHEMERIS_TYPE":"0","MEAN_MOTION_DOT":"0.00001951","BSTAR":"0.00014985000000","RCS_SIZE":"LARGE","CENTER_NAME":"EARTH","RA_OF_ASC_NODE":"207.6973","REV_AT_EPOCH":"16673","SEMIMAJOR_AXIS":"6925.344","NORAD_CAT_ID":"44718","ECCENTRICITY":"0.00017560","OBJECT_NAME":"STARLINK-1012","LAUNCH_DATE":"2019-11-11","MEAN_ELEMENT_THEORY":"SGP4","TLE_LINE1":"1 44718U 19074F   22322.10277620  .00001951  00000-0  14985-3 0  9997","COUNTRY_CODE":"US","MEAN_MOTION_DDOT":"0.0000000000000","GP_ID":"218132210","OBJECT_TYPE":"PAYLOAD","EPOCH":"2022-11-18T02:27:59.863680","MEAN_MOTION":"15.06401379","DECAY_DATE":null},{"TLE_LINE2":"2 44719  53.0544 204.9858 0001513  71.0577 289.0576 15.06406945167956","TIME_SYSTEM":"UTC","INCLINATION":"53.0544","ARG_OF_PERICENTER":"71.0577","OBJECT_ID":"2019-074G","REF_FRAME":"TEME","PERIAPSIS":"546.144","MEAN_ANOMALY":"289.0576","PERIOD":"95.592","CLASSIFICATION_TYPE":"U","ELEMENT_SET_NO":"999","FILE":"3662753","SITE":"AFETR","APOAPSIS":"548.240","BSTAR":"0.00019043000000","RCS_SIZE":"LARGE","EPHEMERIS_TYPE":"0","MEAN_MOTION_DOT":"0.00002557","SEMIMAJOR_AXIS":"6925.327","NORAD_CAT_ID":"44719","OBJECT_NAME":"STARLINK-1013","ECCENTRICITY":"0.00015130","REV_AT_EPOCH":"16795","RA_OF_ASC_NODE":"204.9858","CENTER_NAME":"EARTH","TLE_LINE1":"1 44719U 19074G   22322.70726277  .00002557  00000-0  19043-3 0  9994","COUNTRY_CODE":"US","MEAN_ELEMENT_THEORY":"SGP4","LAUNCH_DATE":"2019-11-11","MEAN_MOTION_DDOT":"0.0000000000000","DECAY_DATE":null,"MEAN_MOTION":"15.06406945","OBJECT_TYPE":"PAYLOAD","GP_ID":"218162900","EPOCH":"2022-11-18T16:58:27.503328"},{"SITE":"AFETR","APOAPSIS":"548.427","PERIOD":"95.592","CLASSIFICATION_TYPE":"U","ELEMENT_SET_NO":"999","FILE":"3662594","MEAN_MOTION_DOT":"0.00001013","EPHEMERIS_TYPE":"0","RCS_SIZE":"LARGE","BSTAR":"0.00008691200000","ARG_OF_PERICENTER":"57.0827","TLE_LINE2":"2 44720  53.0555 206.3791 0001736  57.0827 303.0328 15.06396499166954","TIME_SYSTEM":"UTC","INCLINATION":"53.0555","REF_FRAME":"TEME","PERIAPSIS":"546.022","MEAN_ANOMALY":"303.0328","OBJECT_ID":"2019-074H","MEAN_MOTION_DDOT":"0.0000000000000","OBJECT_TYPE":"PAYLOAD","GP_ID":"218141138","EPOCH":"2022-11-18T09:25:57.021312","DECAY_DATE":null,"MEAN_MOTION":"15.06396499","REV_AT_EPOCH":"16695","RA_OF_ASC_NODE":"206.3791","CENTER_NAME":"EARTH","ECCENTRICITY":"0.00017360","SEMIMAJOR_AXIS":"6925.359","NORAD_CAT_ID":"44720","OBJECT_NAME":"STARLINK-1014","LAUNCH_DATE":"2019-11-11","TLE_LINE1":"1 44720U 19074H   22322.39302108  .00001013  00000-0  86912-4 0  9990","COUNTRY_CODE":"US","MEAN_ELEMENT_THEORY":"SGP4"},{"REF_FRAME":"TEME","PERIAPSIS":"546.046","MEAN_ANOMALY":"307.9505","OBJECT_ID":"2019-074J","ARG_OF_PERICENTER":"52.1638","TLE_LINE2":"2 44721  53.0538 206.4362 0001701  52.1638 307.9505 15.06396715166770","TIME_SYSTEM":"UTC","INCLINATION":"53.0538","MEAN_MOTION_DOT":"-0.00000719","EPHEMERIS_TYPE":"0","RCS_SIZE":"LARGE","BSTAR":"-0.00002939100000","SITE":"AFETR","APOAPSIS":"548.402","PERIOD":"95.592","CLASSIFICATION_TYPE":"U","ELEMENT_SET_NO":"999","FILE":"3662515","LAUNCH_DATE":"2019-11-11","TLE_LINE1":"1 44721U 19074J   22322.38291003 -.00000719  00000-0 -29391-4 0  9993","COUNTRY_CODE":"US","MEAN_ELEMENT_THEORY":"SGP4","RA_OF_ASC_NODE":"206.4362","REV_AT_EPOCH":"16677","CENTER_NAME":"EARTH","SEMIMAJOR_AXIS":"6925.359","NORAD_CAT_ID":"44721","OBJECT_NAME":"STARLINK-1015","ECCENTRICITY":"0.00017010","GP_ID":"218133962","OBJECT_TYPE":"PAYLOAD","EPOCH":"2022-11-18T09:11:23.426592","DECAY_DATE":null,"MEAN_MOTION":"15.06396715","MEAN_MOTION_DDOT":"0.0000000000000"},{"MEAN_ANOMALY":"294.3579","PERIAPSIS":"545.884","REF_FRAME":"TEME","OBJECT_ID":"2019-074K","ARG_OF_PERICENTER":"65.7609","INCLINATION":"53.0536","TIME_SYSTEM":"UTC","TLE_LINE2":"2 44722  53.0536 207.6045 0001902  65.7609 294.3579 15.06404035166743","MEAN_MOTION_DOT":"0.00001655","EPHEMERIS_TYPE":"0","BSTAR":"0.00012997000000","RCS_SIZE":"LARGE","APOAPSIS":"548.518","SITE":"AFETR","FILE":"3662515","CLASSIFICATION_TYPE":"U","ELEMENT_SET_NO":"999","PERIOD":"95.592","LAUNCH_DATE":"2019-11-11","MEAN_ELEMENT_THEORY":"SGP4","COUNTRY_CODE":"US","TLE_LINE1":"1 44722U 19074K   22322.12025177  .00001655  00000-0  12997-3 0  9994","CENTER_NAME":"EARTH","REV_AT_EPOCH":"16674","RA_OF_ASC_NODE":"207.6045","ECCENTRICITY":"0.00019020","SEMIMAJOR_AXIS":"6925.336","NORAD_CAT_ID":"44722","OBJECT_NAME":"STARLINK-1016","EPOCH":"2022-11-18T02:53:09.752928","GP_ID":"218132710","OBJECT_TYPE":"PAYLOAD","MEAN_MOTION":"15.06404035","DECAY_DATE":null,"MEAN_MOTION_DDOT":"0.0000000000000"}];
